NORAD_CAT_ID,OBJECT_NAME,OBJECT_TYPE,EPOCH,MEAN_MOTION,ECCENTRICITY,INCLINATION,RA_OF_ASC_NODE,ARG_OF_PERICENTER,MEAN_ANOMALY,BSTAR,MEAN_MOTION_DOT,MEAN_MOTION_DDOT,TLE_LINE0,TLE_LINE1,TLE_LINE2,SEMIMAJOR_AXIS,PERIOD,APOGEE,PERIGEE,DECAYED
53283.0,STARLINK-4175,PAYLOAD,2024-01-29 00:47:40,15.08783936,0.0001882,53.2196,43.739,78.7117,281.4087,0.00019774,2.856e-05,0.0,0 STARLINK-4175,1 53283U 22086AT  24029.03311307  .00002856  00000-0  19774-3 0  9996,2 53283  53.2196  43.7390 0001882  78.7117 281.4087 15.08783936 84681,6918.052,95.441,541.219,538.615,0.0
53283.0,STARLINK-4175,PAYLOAD,2024-01-29 07:09:11,15.08846248,0.0001728,53.2189,42.5462,86.04,274.079,8.4557e-05,1.058e-05,0.0,0 STARLINK-4175,1 53283U 22086AT  24029.29804596  .00001058  00000-0  84557-4 0  9996,2 53283  53.2189  42.5462 0001728  86.0400 274.0790 15.08846248 84726,6917.861,95.437,540.922,538.531,0.0
53283.0,STARLINK-4175,PAYLOAD,2024-01-30 10:10:43,15.08852749,0.0002223,53.2197,37.4903,118.435,241.6866,0.00029894,4.474e-05,0.0,0 STARLINK-4175,1 53283U 22086AT  24030.42411001  .00004474  00000-0  29894-3 0  9995,2 53283  53.2197  37.4903 0002223 118.4350 241.6866 15.08852749 84898,6917.841,95.437,541.244,538.169,0.0
53283.0,STARLINK-4175,PAYLOAD,2024-01-31 03:39:58,15.08853398,0.0002273,53.2182,34.2146,121.7593,238.3621,-2.1251e-05,-6.27e-06,0.0,0 STARLINK-4175,1 53283U 22086AT  24031.15275923 -.00000627  00000-0 -21251-4 0  9995,2 53283  53.2182  34.2146 0002273 121.7593 238.3621 15.08853398 85004,6917.839,95.437,541.277,538.132,0.0
53283.0,STARLINK-4175,PAYLOAD,2024-01-31 05:15:21,15.08852427,0.0002321,53.2184,33.9179,125.6694,234.4515,-1.7588e-05,-5.68e-06,0.0,0 STARLINK-4175,1 53283U 22086AT  24031.21899881 -.00000568  00000-0 -17588-4 0  9999,2 53283  53.2184  33.9179 0002321 125.6694 234.4515 15.08852427 85187,6917.842,95.437,541.313,538.102,0.0
53283.0,STARLINK-4175,PAYLOAD,2024-02-01 03:30:45,15.08848122,0.000227,53.2181,29.7521,122.8169,237.3042,-0.0001499,-2.674e-05,0.0,0 STARLINK-4175,1 53283U 22086AT  24032.14636183 -.00002674  00000-0 -14990-3 0  9999,2 53283  53.2181  29.7521 0002270 122.8169 237.3042 15.08848122 85158,6917.856,95.437,541.291,538.15,0.0
53283.0,STARLINK-4175,PAYLOAD,2024-02-01 06:41:32,15.08846502,0.0001784,53.218,29.1591,107.7302,252.3885,-0.00015765,-2.797e-05,0.0,0 STARLINK-4175,1 53283U 22086AT  24032.27884342 -.00002797  00000-0 -15765-3 0  9992,2 53283  53.2180  29.1591 0001784 107.7302 252.3885 15.08846502 85341,6917.861,95.437,540.96,538.491,0.0
53283.0,STARLINK-4175,PAYLOAD,2024-02-02 04:56:55,15.08839071,0.0001767,53.2186,25.0014,101.1794,258.9397,6.7388e-05,7.85e-06,0.0,0 STARLINK-4175,1 53283U 22086AT  24033.20620102  .00000785  00000-0  67388-4 0  9990,2 53283  53.2186  25.0014 0001767 101.1794 258.9397 15.08839071 85316,6917.883,95.438,540.971,538.526,0.0
53283.0,STARLINK-4175,PAYLOAD,2024-02-03 03:12:20,15.08835216,0.0001676,53.2187,20.8368,94.0099,266.1084,5.7655e-05,6.3e-06,0.0,0 STARLINK-4175,1 53283U 22086AT  24034.13356600  .00000630  00000-0  57655-4 0  9997,2 53283  53.2187  20.8368 0001676  94.0099 266.1084 15.08835216 85455,6917.895,95.438,540.919,538.601,0.0
53283.0,STARLINK-4175,PAYLOAD,2024-02-03 07:58:29,15.0883874,0.0001699,53.2187,19.945,94.402,265.7166,8.6992e-05,1.097e-05,0.0,0 STARLINK-4175,1 53283U 22086AT  24034.33228389  .00001097  00000-0  86992-4 0  9995,2 53283  53.2187  19.9450 0001699  94.4020 265.7166 15.08838740 85652,6917.884,95.438,540.925,538.574,0.0
53283.0,STARLINK-4175,PAYLOAD,2024-02-04 07:49:16,15.08849687,0.0001758,53.2192,15.4823,92.3893,267.7301,-1.0732e-05,-4.59e-06,0.0,0 STARLINK-4175,1 53283U 22086AT  24035.32588098 -.00000459  00000-0 -10732-4 0  9993,2 53283  53.2192  15.4823 0001758  92.3893 267.7301 15.08849687 85637,6917.851,95.437,540.932,538.5,0.0
53283.0,STARLINK-4175,PAYLOAD,2024-02-05 04:29:17,15.08842162,0.0001858,53.2195,11.6171,82.186,277.9343,4.9286e-05,4.96e-06,0.0,0 STARLINK-4175,1 53283U 22086AT  24036.18700430  .00000496  00000-0  49286-4 0  9999,2 53283  53.2195  11.6171 0001858  82.1860 277.9343 15.08842162 85760,6917.874,95.437,541.024,538.453,0.0
53283.0,STARLINK-4175,PAYLOAD,2024-02-05 07:40:02,15.08848933,0.0001703,53.2194,11.0194,92.8106,267.3081,8.727e-05,1.101e-05,0.0,0 STARLINK-4175,1 53283U 22086AT  24036.31947747  .00001101  00000-0  87270-4 0  9997,2 53283  53.2194  11.0194 0001703  92.8106 267.3081 15.08848933 85784,6917.853,95.437,540.896,538.54,0.0
53283.0,STARLINK-4175,PAYLOAD,2024-02-06 04:20:03,15.08847512,0.0001776,53.2195,7.1539,81.8321,278.2872,2.3212e-05,8.1e-07,0.0,0 STARLINK-4175,1 53283U 22086AT  24037.18060001  .00000081  00000-0  23212-4 0  9994,2 53283  53.2195   7.1539 0001776  81.8321 278.2872 15.08847512 85917,6917.857,95.437,540.951,538.494,0.0
53283.0,STARLINK-4175,PAYLOAD,2024-02-07 04:10:51,15.08839446,0.0001519,53.2184,2.6924,100.9998,259.1165,-4.3448e-05,-9.79e-06,0.0,0 STARLINK-4175,1 53283U 22086AT  24038.17420659 -.00000979  00000-0 -43448-4 0  9994,2 53283  53.2184   2.6924 0001519 100.9998 259.1165 15.08839446 86068,6917.882,95.438,540.798,538.696,0.0
53283.0,STARLINK-4175,PAYLOAD,2024-02-07 21:40:06,15.08856146,0.0001543,53.2178,359.4238,106.3946,253.7216,-0.00026523,-4.509e-05,0.0,0 STARLINK-4175,1 53283U 22086AT  24038.90284931 -.00004509  00000-0 -26523-3 0  9993,2 53283  53.2178 359.4238 0001543 106.3946 253.7216 15.08856146 86346,6917.831,95.437,540.763,538.629,0.0
53283.0,STARLINK-4175,PAYLOAD,2024-02-08 07:12:23,15.0886571,0.0001498,53.2174,357.643,85.2328,274.8836,-0.00016421,-2.902e-05,0.0,0 STARLINK-4175,1 53283U 22086AT  24039.30027739 -.00002902  00000-0 -16421-3 0  9990,2 53283  53.2174 357.6430 0001498  85.2328 274.8836 15.08865710 86231,6917.802,95.436,540.703,538.631,0.0
53283.0,STARLINK-4175,PAYLOAD,2024-02-08 19:55:29,15.08841788,0.0001327,53.2176,355.2637,83.4797,276.6346,0.00014229,1.977e-05,0.0,0 STARLINK-4175,1 53283U 22086AT  24039.83020370  .00001977  00000-0  14229-3 0  9995,2 53283  53.2176 355.2637 0001327  83.4797 276.6346 15.08841788 86311,6917.875,95.437,540.658,538.822,0.0
53283.0,STARLINK-4175,PAYLOAD,2024-02-08 21:30:53,15.08833164,0.0001154,53.2179,354.9677,95.5672,264.5452,6.9062e-05,8.11e-06,0.0,0 STARLINK-4175,1 53283U 22086AT  24039.89645261  .00000811  00000-0  69062-4 0  9995,2 53283  53.2179 354.9677 0001154  95.5672 264.5452 15.08833164 86490,6917.901,95.438,540.565,538.968,0.0
53283.0,STARLINK-4175,PAYLOAD,2024-02-09 03:52:24,15.08848751,0.0001331,53.2179,353.777,99.0809,261.0334,0.00019916,2.884e-05,0.0,0 STARLINK-4175,1 53283U 22086AT  24040.16140006  .00002884  00000-0  19916-3 0  9998,2 53283  53.2179 353.7770 0001331  99.0809 261.0334 15.08848751 86533,6917.854,95.437,540.639,538.798,0.0
53283.0,STARLINK-4175,PAYLOAD,2024-02-09 19:46:15,15.08856717,0.0001334,53.2182,350.8024,97.9204,262.194,0.0001383,1.915e-05,0.0,0 STARLINK-4175,1 53283U 22086AT  24040.82379478  .00001915  00000-0  13830-3 0  9991,2 53283  53.2182 350.8024 0001334  97.9204 262.1940 15.08856717 86464,6917.829,95.436,540.617,538.771,0.0
53283.0,STARLINK-4175,PAYLOAD,2024-02-10 06:53:56,15.08864626,0.0001316,53.2184,348.721,102.3363,257.7777,0.00019531,2.824e-05,0.0,0 STARLINK-4175,1 53283U 22086AT  24041.28746407  .00002824  00000-0  19531-3 0  9996,2 53283  53.2184 348.7210 0001316 102.3363 257.7777 15.08864626 86709,6917.805,95.436,540.581,538.76,0.0
53283.0,STARLINK-4175,PAYLOAD,2024-02-10 19:37:05,15.08820548,8.99e-05,53.2187,346.3436,107.3187,252.7903,-6.2426e-05,-1.28e-05,0.0,0 STARLINK-4175,1 53283U 22086AT  24041.81741899 -.00001280  00000-0 -62426-4 0  9994,2 53283  53.2187 346.3436 0000899 107.3187 252.7903 15.08820548 86611,6917.94,95.439,540.427,539.183,0.0
53283.0,STARLINK-4175,PAYLOAD,2024-02-11 03:33:59,15.08831982,0.0001444,53.2186,344.8577,89.2073,270.9085,-0.00021702,-3.739e-05,0.0,0 STARLINK-4175,1 53283U 22086AT  24042.14860636 -.00003739  00000-0 -21702-3 0  9994,2 53283  53.2186 344.8577 0001444  89.2073 270.9085 15.08831982 86660,6917.905,95.438,540.769,538.771,0.0
53283.0,STARLINK-4175,PAYLOAD,2024-02-11 05:09:22,15.08835177,0.0001499,53.2185,344.5585,109.7677,250.3477,-0.0001746,-3.065e-05,0.0,0 STARLINK-4175,1 53283U 22086AT  24042.21484327 -.00003065  00000-0 -17460-3 0  9999,2 53283  53.2185 344.5585 0001499 109.7677 250.3477 15.08835177 86840,6917.895,95.438,540.797,538.723,0.0
53283.0,STARLINK-4175,PAYLOAD,2024-02-12 03:24:45,15.08854526,0.000134,53.2186,340.3948,98.5848,261.5296,0.00043918,6.711e-05,0.0,0 STARLINK-4175,1 53283U 22086AT  24043.14219790  .00006711  00000-0  43918-3 0  9998,2 53283  53.2186 340.3948 0001340  98.5848 261.5296 15.08854526 86817,6917.836,95.437,540.628,538.774,0.0
53283.0,STARLINK-4175,PAYLOAD,2024-02-12 05:00:08,15.08858413,0.0001282,53.2183,340.0972,107.1429,252.9703,0.0005219,8.032e-05,0.0,0 STARLINK-4175,1 53283U 22086AT  24043.20843612  .00008032  00000-0  52190-3 0  9991,2 53283  53.2183 340.0972 0001282 107.1429 252.9703 15.08858413 86990,6917.824,95.436,540.576,538.802,0.0
53283.0,STARLINK-4175,PAYLOAD,2024-02-12 19:18:38,15.08839734,0.0001508,53.2183,337.423,89.3342,270.7823,0.00036313,5.496e-05,0.0,0 STARLINK-4175,1 53283U 22086AT  24043.80460909  .00005496  00000-0  36313-3 0  9991,2 53283  53.2183 337.4230 0001508  89.3342 270.7823 15.08839734 86911,6917.881,95.438,540.789,538.703,0.0
53283.0,STARLINK-4175,PAYLOAD,2024-02-13 01:40:09,15.08852892,0.0002059,53.2179,336.2327,128.2402,231.8775,0.00038031,5.772e-05,0.0,0 STARLINK-4175,1 53283U 22086AT  24044.06955910  .00005772  00000-0  38031-3 0  9997,2 53283  53.2179 336.2327 0002059 128.2402 231.8775 15.08852892 86950,6917.841,95.437,541.13,538.282,0.0
53283.0,STARLINK-4175,PAYLOAD,2024-02-13 12:47:52,15.08837846,0.0001673,53.2185,334.1491,94.5373,265.581,0.00037278,5.649e-05,0.0,0 STARLINK-4175,1 53283U 22086AT  24044.53324428  .00005649  00000-0  37278-3 0  9998,2 53283  53.2185 334.1491 0001673  94.5373 265.5810 15.08837846 87192,6917.887,95.438,540.909,538.595,0.0
